[Satellite]
VERSION=1.1
NAME=FLOCK 2E'-17
NICKNAME=FLOCK 2E'-17
TLE1=1 41776U 98067KN  17185.93834630  .00006785  00000-0  85156-4 0  9998
TLE2=2 41776  51.6405 301.1812 0005595   0.2428 359.8567 15.61028400 45632
